[{"OBJECT_NAME":"ONEWEB-0297","OBJECT_ID":"2021-075M","EPOCH":"2026-03-09T20:25:39.982944","MEAN_MOTION":13.12441256,"ECCENTRICITY":0.00018105,"INCLINATION":87.8994,"RA_OF_ASC_NODE":10.4015,"ARG_OF_PERICENTER":75.1925,"MEAN_ANOMALY":284.9404,"EPHEMERIS_TYPE":0,"CLASSIFICATION_TYPE":"U","NORAD_CAT_ID":49086,"ELEMENT_SET_NO":999,"REV_AT_EPOCH":22215,"BSTAR":-0.00061474688,"MEAN_MOTION_DOT":-2.08e-6,"MEAN_MOTION_DDOT":0},{"OBJECT_NAME":"FENGYUN 1C DEB","OBJECT_ID":"1999-025BGR","EPOCH":"2026-03-09T07:21:57.697056","MEAN_MOTION":13.06693164,"ECCENTRICITY":0.04985611,"INCLINATION":98.5699,"RA_OF_ASC_NODE":198.5734,"ARG_OF_PERICENTER":344.7367,"MEAN_ANOMALY":13.9161,"EPHEMERIS_TYPE":0,"CLASSIFICATION_TYPE":"U","NORAD_CAT_ID":31095,"ELEMENT_SET_NO":999,"REV_AT_EPOCH":90578,"BSTAR":-0.00065253443,"MEAN_MOTION_DOT":-4.28e-6,"MEAN_MOTION_DDOT":0}]
